OBJECT_NAME,OBJECT_ID,EPOCH,MEAN_MOTION,ECCENTRICITY,INCLINATION,RA_OF_ASC_NODE,ARG_OF_PERICENTER,MEAN_ANOMALY,EPHEMERIS_TYPE,CLASSIFICATION_TYPE,NORAD_CAT_ID,ELEMENT_SET_NO,REV_AT_EPOCH,BSTAR,MEAN_MOTION_DOT,MEAN_MOTION_DDOT
POLYITAN-1,2014-033AJ,2026-07-10T16:05:53.973312,15.34111365,.0008191,98.0946,220.1661,77.9163,282.2995,0,U,40042,999,65719,.40997E-3,.13465E-3,0
TIGRISAT,2014-033AK,2026-07-10T08:37:12.736416,14.85241074,.00490548,97.7857,340.8441,0.2988,359.8248,0,U,40043,999,64906,.12097154E-3,.1004E-4,0
AEROCUBE 6A,2014-033AM,2026-07-09T17:33:14.827104,14.98308817,.00369154,97.7235,357.4445,299.7682,59.9870,0,U,40045,999,64999,.28750307E-3,.3408E-4,0
AEROCUBE 6B,2014-033AN,2026-07-10T05:53:35.084544,14.99771692,.00379448,97.7203,357.7928,287.6201,72.0880,0,U,40046,999,65021,.25889665E-3,.3186E-4,0
CANX-4,2014-034C,2026-07-10T10:57:21.776256,14.81306260,.00115745,98.3092,67.6207,299.7507,60.2552,0,U,40055,999,64797,.76449036E-4,.539E-5,0
CANX-5,2014-034D,2026-07-10T02:48:22.258656,14.81323206,.00115849,98.3094,67.3137,301.1690,58.8385,0,U,40056,999,63873,.80197682E-4,.569E-5,0
UKUBE-1,2014-037F,2026-07-09T18:36:46.096128,15.13896142,.000324,98.4244,196.4263,97.6551,262.5046,0,U,40074,999,65197,.31609155E-3,.5644E-4,0
BRITE-PL2 (HEWELIUSZ),2014-049B,2026-07-10T06:27:33.976800,14.94677973,.00147276,97.9115,303.4501,38.1885,322.0375,0,U,40119,999,64489,.13523148E-3,.1409E-4,0
AEROCUBE 5C,2015-058B,2026-07-09T00:42:20.006208,14.91551276,.01319227,64.7653,194.6344,54.7863,306.5516,0,U,40965,999,36891,.17146698E-3,.1855E-4,0
AEROCUBE 7,2015-058C,2026-07-09T08:44:24.844416,14.95877670,.01216369,64.7605,175.3442,52.9912,308.2259,0,U,40966,999,36927,.27172614E-3,.3354E-4,0
FOX-1A (AO-85),2015-058D,2026-07-10T11:49:16.348512,14.91070925,.01320106,64.7732,206.5515,47.5828,313.6362,0,U,40967,999,11704,.16251471E-3,.1725E-4,0
SINOD-D 1,2015-058E,2026-07-10T09:49:00.524640,14.96059723,.01206742,64.7732,186.1818,43.9846,317.0794,0,U,40968,999,12013,.25966039E-3,.3205E-4,0
SNAP-3 ALICE,2015-058G,2026-07-10T12:38:02.000256,15.66308605,.0023802,64.7493,22.8906,351.6430,8.4319,0,U,40970,999,12053,.11218E-2,.120022E-2,0
LMRST-SAT,2015-058H,2026-07-10T07:40:18.931584,14.90686200,.01335468,64.7738,203.4710,49.6543,311.6141,0,U,40971,999,11700,.16605514E-3,.1755E-4,0
SNAP-3 EDDIE,2015-058J,2026-07-09T22:10:15.749760,15.67468246,.00247322,64.7403,15.5470,355.1959,4.8949,0,U,40972,999,12258,.11195792E-2,.125801E-2,0
PROPCUBE 3,2015-058K,2026-07-10T08:45:49.966560,14.94391869,.01254095,64.7667,180.1110,50.8407,310.3769,0,U,40973,999,11826,.23878195E-3,.283E-4,0
BISONSAT,2015-058L,2026-07-10T04:19:22.202976,15.16841750,.00815735,64.7581,99.2688,37.9850,322.6989,0,U,40974,999,11910,.52443103E-3,.11095E-3,0
SNAP-3 JIMI,2015-058M,2026-07-10T06:52:56.781984,15.02565119,.01074153,64.7635,146.6720,46.2352,314.7592,0,U,40975,999,11769,.36254612E-3,.5297E-4,0
PROPCUBE 1 (FLORA),2015-058N,2026-07-10T08:42:41.808960,14.89314103,.01321281,64.7729,223.4027,51.9307,309.3637,0,U,40976,999,11971,.13778133E-3,.1364E-4,0
SINOD-D 3,2015-058P,2026-07-10T11:13:09.845184,14.94150488,.01206938,64.7705,203.1139,48.9615,312.1854,0,U,40977,999,11823,.21224933E-3,.2448E-4,0
RAVAN,2016-067B,2026-07-09T14:51:30.576096,15.57028665,.00016998,97.9855,82.8186,255.2675,104.8390,0,U,41849,999,53118,.62254762E-3,.45047E-3,0
CELTEE 1,2016-067C,2026-07-08T14:31:24.708576,15.19898372,.00020974,98.0651,57.6329,118.4249,241.7196,0,U,41850,999,52913,.15879697E-3,.3332E-4,0
OPTICUBE 04,2016-067D,2026-07-10T09:49:37.177248,15.09759786,.00164844,98.0683,44.9036,43.2384,317.0135,0,U,41851,999,52867,.12308193E-3,.192E-4,0
AEROCUBE 8D,2016-067E,2026-07-08T14:50:07.137888,15.24707647,.00048788,98.0658,61.4206,72.9126,287.2644,0,U,41852,999,52933,.20032197E-3,.4874E-4,0
AEROCUBE 8C,2016-067F,2026-07-10T01:59:43.886112,15.24977935,.00047596,98.0533,60.1963,0.9675,359.1570,0,U,41853,999,52955,.20321101E-3,.4986E-4,0
CORVUS BC2,2017-042X,2026-07-10T07:28:21.992160,15.06442373,.00138712,97.4090,351.7667,39.1681,321.0548,0,U,42846,999,49054,.14632989E-3,.2103E-4,0
CORVUS BC1,2017-042Y,2026-07-10T16:50:45.602880,15.06607650,.0012081,97.4119,352.9716,16.3956,343.7660,0,U,42847,999,49063,.1141E-3,.1633E-4,0
MAKERSAT 0,2017-073D,2026-07-08T17:28:33.025728,15.32839065,.01050669,97.4597,72.4218,195.3224,164.4830,0,U,43016,999,46976,.36375063E-3,.13683E-3,0
SIRION PATHFINDER-2,2018-099B,2026-07-09T10:41:18.198528,15.14748987,.00078871,97.4244,238.9746,212.4979,147.5769,0,U,43759,999,41599,.1650276E-3,.2996E-4,0
CORVUS BC4,2018-099K,2026-07-09T08:23:54.306240,15.12672304,.00065246,97.4057,232.6818,286.4254,73.6260,0,U,43767,999,41575,.16259755E-3,.2782E-4,0
